{
  "norad_id": 65968,
  "name": "KUIPER-00149",
  "history": [
    {
      "epoch": "2026-03-28T20:44:34.260288Z",
      "apogee_km": 629.9475366981696,
      "perigee_km": 628.9806279008344,
      "latitude_deg": -1.2302942741518738e-05,
      "longitude_deg": 115.8934247109843,
      "height_km": 630.4959820047364,
      "semi_major_axis_km": 7007.601082299502,
      "eccentricity": 6.899e-05,
      "inclination_deg": 51.9009,
      "raan_deg": 253.3148,
      "arg_perigee_deg": 126.2336,
      "mean_anomaly_deg": 233.869,
      "mean_motion_rev_day": 14.79955665
    }
  ]
}